STARLINK-1007           
1 44713C 19074A   23133.89423611  .00007923  00000+0  53097-3 0  1333
2 44713  53.0537 134.0342 0001190  89.5993 270.5413 15.06381740    13
STARLINK-1008           
1 44714C 19074B   23133.89840278  .00009038  00000+0  60559-3 0  1336
2 44714  53.0530 134.0220 0001145  83.4181  54.2077 15.06385906    15
STARLINK-1009           
1 44715C 19074C   23133.89979167  .00008417  00000+0  56410-3 0  1338
2 44715  53.0531 134.0150 0001220  81.9260 123.2186 15.06378882    17
STARLINK-1010           
1 44716C 19074D   23133.91159722 -.00026404  00000+0 -17689-2 0  1331
2 44716  53.0537 133.9620 0001327  71.7242  97.4588 15.06429819    14
STARLINK-1011           
1 44717C 19074E   23133.91229167  .00007091  00000+0  47514-3 0  1333
2 44717  53.0535 153.9545 0001248  70.4614 112.4915 15.06390890    10
STARLINK-1012           
1 44718C 19074F   23133.90812500  .00007795  00000+0  52244-3 0  1339
2 44718  53.0527 133.9722 0001209  90.2862 220.0751 15.06379920    14
STARLINK-1013           
1 44719C 19074G   23133.90673611  .00008534  00000+0  57187-3 0  1331
2 44719  53.0526 133.9773 0001230  88.9401 173.8936 15.06386452    15
STARLINK-1014           
1 44720C 19074H   23133.90673611  .00008985  00000+0  60194-3 0  1335
2 44720  53.0532 133.9679 0001318  81.7134  86.2172 15.06393588    17
STARLINK-1015           
1 44721C 19074J   23133.90187500  .00008584  00000+0  57517-3 0  1333
2 44721  53.0529 134.0041 0001303  86.8521 109.6048 15.06387278    10
STARLINK-1017           
1 44723C 19074L   23133.91229167  .00007597  00000+0  50904-3 0  1338
2 44723  53.0534 133.9586 0001141  77.4494  75.5012 15.06390811    14
STARLINK-1019           
1 44724C 19074M   23133.89562500  .00007082  00000+0  47459-3 0  1337
2 44724  53.0532 134.0341 0001288  95.9694 166.5886 15.06385967    19
STARLINK-1020           
1 44725C 19074N   23133.90881944  .00008617  00000+0  57743-3 0  1338
2 44725  53.0524 153.9702 0001280  81.7868 222.3387 15.06386336    18
STARLINK-1021           
1 44726C 19074P   23133.91298611  .00007169  00000+0  48045-3 0  1339
2 44726  53.0531 133.9570 0001322  84.3956 292.3577 15.06384265    19
STARLINK-1022           
1 44727C 19074Q   23133.90256944 -.00014281  00000+0 -87066-4 0  1334
2 44727  53.0538 158.9478 0001417  58.5874 116.1168 15.76742541    19
STARLINK-1024           
1 44729C 19074S   23133.87409722  .00024199  00000+0  51085-3 0  1334
2 44729  53.0203 102.5442 0010916  49.1416  36.1193 15.44518968    16
STARLINK-1026           
1 44731C 19074U   23133.82548611  .00007132  00000+0  47801-3 0  1332
2 44731  53.0523 134.3439 0001286  91.6894 110.2616 15.06379521    17
STARLINK-1027           
1 44732C 19074V   23133.90256944  .00007900  00000+0  52945-3 0  1335
2 44732  53.0523 153.9994 0001151  95.2501 234.9549 15.06380484    16
STARLINK-1028           
1 44733C 19074W   23133.90812500  .00007391  00000+0  49534-3 0  1336
2 44733  53.0528 133.9768 0001319  91.1926 279.1822 15.06380437    14
STARLINK-1029           
1 44734C 19074X   23133.90118056  .00022273  00000+0  14922-2 0  1330
2 44734  53.0551  54.0088 0001348  91.9006 160.6503 15.06380333    13
STARLINK-1030           
1 44735C 19074Y   23133.89493056  .00007966  00000+0  53390-3 0  1330
2 44735  53.0530 154.0369 0001196  91.2302 157.5366 15.06378065    18
STARLINK-1031           
1 44736C 19074Z   23133.90951389  .00007717  00000+0  51707-3 0  1335
2 44736  53.0530 153.9672 0001244  78.8055 169.0675 15.06391540    18
STARLINK-1032           
1 44737C 19074AA  23133.90465278  .00008577  00000+0  57465-3 0  1335
2 44737  53.0535 153.9905 0001245  87.8960  73.6018 15.06389575    15
STARLINK-1033           
1 44738C 19074AB  23133.86784722 -.00155540  00000+0 -36907-2 0  1331
2 44738  53.0560 150.5689 0001203  70.1923  18.6433 15.41290895    19
STARLINK-1035           
1 44740C 19074AD  23133.90395833  .00007768  00000+0  52051-3 0  1335
2 44740  53.0533 153.9929 0001122  73.1977 104.5483 15.06387995    17
STARLINK-1036           
1 44741C 19074AE  23133.91159722  .00006457  00000+0  43277-3 0  1336
2 44741  53.0533 153.9580 0001304  91.7178  67.4851 15.06380533    19
STARLINK-1038           
1 44743C 19074AG  23133.90881944  .00011996  00000+0  80394-3 0  1330
2 44743  53.0536 173.9691 0001275  80.1563 153.9491 15.06377142    19
STARLINK-1039           
1 44744C 19074AH  23133.90951389  .00009387  00000+0  62915-3 0  1332
2 44744  53.0531 173.9674 0001258  82.9694  94.9086 15.06376672    13
STARLINK-1041           
1 44746C 19074AK  23133.90743056  .00011818  00000+0  79224-3 0  1337
2 44746  53.0534 173.9760 0001117  84.1905 162.4420 15.06366162    13
STARLINK-1042           
1 44747C 19074AL  23133.91229167  .00010107  00000+0  67763-3 0  1336
2 44747  53.0528 173.9570 0001280  84.7388  28.2671 15.06363878    16
STARLINK-1043           
1 44748C 19074AM  23133.89909722  .00011106  00000+0  74424-3 0  1338
2 44748  53.0532 174.0143 0001221  78.8302 162.5371 15.06381914    15
STARLINK-1046           
1 44751C 19074AQ  23133.89562500  .00010102  00000+0  67705-3 0  1330
2 44751  53.0536 174.0282 0001200  86.5686  55.9758 15.06376698    12
STARLINK-1047           
1 44752C 19074AR  23133.91368056  .00008934  00000+0  59890-3 0  1330
2 44752  53.0528 153.9515 0001382  94.7242  35.9891 15.06369390    16
STARLINK-1048           
1 44753C 19074AS  23133.89562500  .00007922  00000+0  53099-3 0  1339
2 44753  53.0537 134.0278 0001136  99.6121 262.9804 15.06377988    18
STARLINK-1049           
1 44754C 19074AT  23133.89284722 -.00355778  00000+0 -20359-2 0  1336
2 44754  53.0509 118.9552 0001388  86.8681 303.6572 15.78504764    10
STARLINK-1052           
1 44757C 19074AW  23133.89631944  .00007436  00000+0  49833-3 0  1333
2 44757  53.0525 154.0271 0001246  93.2343 243.0681 15.06381310    19
STARLINK-1053           
1 44758C 19074AX  23133.89979167  .00013071  00000+0  87607-3 0  1339
2 44758  53.0531 174.1022 0001253  74.1372 190.9229 15.06374631    18
STARLINK-1054           
1 44759C 19074AY  23133.89840278  .00013194  00000+0  88441-3 0  1333
2 44759  53.0525 174.0177 0001198  91.3557 266.2534 15.06368589    17
STARLINK-1055           
1 44760C 19074AZ  23133.91784722  .00017254  00000+0  90104-3 0  1339
2 44760  53.0528 169.9838 0003888  19.7301  42.8727 15.15378477    17
STARLINK-1056           
1 44761C 19074BA  23133.91437500  .00010478  00000+0  70220-3 0  1337
2 44761  53.0528 173.9475 0001247  80.3744  23.8713 15.06378825    13
STARLINK-1057           
1 44762C 19074BB  23133.89284722  .00006980  00000+0  46777-3 0  1334
2 44762  53.0528 154.0435 0001178  95.1491 242.3170 15.06383063    11
STARLINK-1058           
1 44763C 19074BC  23133.89701389  .00012168  00000+0  81559-3 0  1330
2 44763  53.0534 174.0174 0001291  83.0788 172.1029 15.06373284    19
STARLINK-1059           
1 44764C 19074BD  23133.90881944  .00013533  00000+0  59212-3 0  1337
2 44764  53.0627 140.1482 0004916   7.6606  60.7538 15.21508759    18
STARLINK-1060           
1 44765C 19074BE  23133.90673611  .00008677  00000+0  58149-3 0  1339
2 44765  53.0530 153.9844 0001305  84.2385 248.5652 15.06380628    19
STARLINK-1061           
1 44766C 19074BF  23133.90881944  .00012879  00000+0  86310-3 0  1330
2 44766  53.0533 173.9731 0001303  84.7071 269.3645 15.06378994    11
STARLINK-1062           
1 44767C 19074BG  23133.90256944  .00013214  00000+0  88576-3 0  1337
2 44767  53.0523 173.9874 0001340  76.5948 288.7358 15.06368817    11
STARLINK-1063           
1 44768C 19074BH  23133.90881944  .00010966  00000+0  73491-3 0  1333
2 44768  53.0530 173.9744 0001190  77.7381 196.3788 15.06379835    16
STARLINK-1067           
1 44771C 19074BL  23133.91298611  .00012480  00000+0  83647-3 0  1338
2 44771  53.0531 173.9528 0001174  75.0188 281.7065 15.06374475    11
STARLINK-1068           
1 44772C 19074BM  23133.89909722  .00007379  00000+0  49454-3 0  1337
2 44772  53.0524 154.0197 0001268  92.2831 239.0867 15.06380657    11
STARLINK-1073           
1 44914C 20001A   23133.88312500  .00011878  00000+0  79654-3 0  1332
2 44914  53.0536 294.0865 0000964  79.8266  74.9569 15.06354193    15
STARLINK-1084           
1 44915C 20001B   23133.91090278  .00025488  00000+0  17092-2 0  1331
2 44915  53.0534 293.9652 0000954 100.4063  45.1084 15.06342963    15
STARLINK-1098           
1 44917C 20001D   23133.91229167  .00022335  00000+0  14981-2 0  1336
2 44917  53.0528 293.9610 0001349  89.1001  43.9526 15.06337799    16
STARLINK-1099           
1 44918C 20001E   23133.90465278  .00020476  00000+0  13731-2 0  1337
2 44918  53.0532 294.0204 0001105  70.9938 305.6879 15.06346891    12
STARLINK-1102           
1 44920C 20001G   23133.90951389  .00047825  00000+0  22433-2 0  1339
2 44920  53.0526 286.5479 0002330 177.2498  36.0576 15.19096724    11
STARLINK-1103           
1 44921C 20001H   23133.89493056  .00023634  00000+0  15846-2 0  1332
2 44921  53.0545 294.0269 0001076  97.5619  46.3266 15.06349613    13
STARLINK-1104           
1 44922C 20001J   23133.90256944  .00020217  00000+0  13559-2 0  1331
2 44922  53.0531 294.0004 0001160  81.0691 279.2009 15.06342293    17
STARLINK-1106           
1 44923C 20001K   23133.91784722  .00038694  00000+0  21393-2 0  1336
2 44923  53.0541 290.9326 0001837  37.7962  25.5793 15.13340162    14
STARLINK-1111           
1 44924C 20001L   23133.87479167  .00008992  00000+0  60299-3 0  1333
2 44924  53.0540 294.1493 0001183  82.9389  46.6008 15.06357784    17
STARLINK-1112           
1 44925C 20001M   23133.89493056  .00023697  00000+0  15892-2 0  1336
2 44925  53.0540 294.0367 0000923  71.5201  87.3025 15.06340920    10
STARLINK-1113           
1 44926C 20001N   23133.89145833  .00010813  00000+0  72512-3 0  1333
2 44926  53.0566 294.1359 0001137  81.7391  78.1943 15.06354417    15
STARLINK-1114           
1 44927C 20001P   23133.90673611  .00023694  00000+0  15889-2 0  1330
2 44927  53.0530 293.9854 0001127  78.4199  84.4528 15.06342299    16
STARLINK-1119           
1 44928C 20001Q   23133.90326389  .00024411  00000+0  16370-2 0  1332
